LANDSAT 9               
1 49260U 21088A   24229.53145827  .00001837  00000+0  41791-3 0  9997
2 49260  98.2288 298.3826 0001405  96.4733 263.6626 14.57080682153483
